[{"OBJECT_NAME":"STARLINK-11390 [DTC]","OBJECT_ID":"2024-209J","EPOCH":"2026-03-09T05:19:33.817152","MEAN_MOTION":15.69747889,"ECCENTRICITY":0.00022369,"INCLINATION":53.1566,"RA_OF_ASC_NODE":13.6239,"ARG_OF_PERICENTER":38.9117,"MEAN_ANOMALY":321.2061,"EPHEMERIS_TYPE":0,"CLASSIFICATION_TYPE":"U","NORAD_CAT_ID":61947,"ELEMENT_SET_NO":999,"REV_AT_EPOCH":7664,"BSTAR":0.0020236321,"MEAN_MOTION_DOT":0.0025258,"MEAN_MOTION_DDOT":0},{"OBJECT_NAME":"OBJECT E","OBJECT_ID":"2021-035E","EPOCH":"2026-02-24T23:27:52.334784","MEAN_MOTION":15.69205353,"ECCENTRICITY":0.0007182,"INCLINATION":41.4547,"RA_OF_ASC_NODE":257.9148,"ARG_OF_PERICENTER":354.279,"MEAN_ANOMALY":5.7969,"EPHEMERIS_TYPE":0,"CLASSIFICATION_TYPE":"U","NORAD_CAT_ID":63523,"ELEMENT_SET_NO":999,"REV_AT_EPOCH":5075,"BSTAR":0.00060614223,"MEAN_MOTION_DOT":0.00073106,"MEAN_MOTION_DDOT":0}]
